{"spkid": "50674970", "covariance": {"data": [["2.461685900641726E-15", "-4.308292626548335E-15", "-2.280415886992891E-13", "-2.592102533160635E-13", "5.649355901466544E-13", "2.395733057705874E-13"], ["-4.308292626548335E-15", "7.541407969911718E-15", "3.876596903921918E-13", "4.414364495030353E-13", "-9.857088570201249E-13", "-4.174988981511205E-13"], ["-2.280415886992891E-13", "3.876596903921918E-13", "1.826637845220748E-10", "1.809568035015442E-10", "-9.182816414223144E-11", "-5.439534775109236E-11"], ["-2.592102533160635E-13", "4.414364495030353E-13", "1.809568035015442E-10", "3.508050528708768E-10", "-2.636651002964332E-10", "-2.685370722016524E-10"], ["5.649355901466544E-13", "-9.857088570201249E-13", "-9.182816414223144E-11", "-2.636651002964332E-10", "3.04146829012652E-10", "2.727798492684271E-10"], ["2.395733057705874E-13", "-4.174988981511205E-13", "-5.439534775109236E-11", "-2.685370722016524E-10", "2.727798492684271E-10", "4.442711547457376E-10"]], "elements": [{"label": "e", "sigma": 4.96153796785002e-08, "name": "e", "title": "eccentricity", "value": ".7381386085602966", "units": null}, {"units": "au", "title": "perihelion distance", "value": ".4599378093471677", "sigma": 8.68412803332132e-08, "name": "q", "label": "q"}, {"units": "TDB", "value": "2458617.916627276903", "title": "time of perihelion passage", "name": "tp", "sigma": 1.35153166637735e-05, "label": "tp"}, {"sigma": 1.87297905186064e-05, "name": "om", "title": "longitude of the ascending node", "value": "304.7949922026491", "units": "deg", "label": "node"}, {"sigma": 1.74398058765759e-05, "name": "w", "title": "argument of perihelion", "value": "106.6573396407376", "units": "deg", "label": "peri"}, {"units": "deg", "value": "8.146472400749087", "title": "inclination", "sigma": 2.1077740741022e-05, "name": "i", "label": "i"}], "labels": ["e", "q", "tp", "node", "peri", "i"], "epoch": "2458657.5"}, "elements": [{"name": "e", "sigma": "4.9454E-8", "units": null, "title": "eccentricity", "value": ".7379001834274067", "label": "e"}, {"units": "au", "title": "semi-major axis", "value": "1.755738982196887", "name": "a", "sigma": "4.561E-9", "label": "a"}, {"sigma": "8.6851E-8", "name": "q", "value": ".4601788651831556", "title": "perihelion distance", "units": "au", "label": "q"}, {"sigma": "2.1098E-5", "name": "i", "value": "8.145504417055935", "title": "inclination; angle with respect to x-y ecliptic plane", "units": "deg", "label": "i"}, {"units": "deg", "title": "longitude of the ascending node", "value": "304.6927680647244", "sigma": "1.8632E-5", "name": "om", "label": "node"}, {"value": "106.768413193195", "title": "argument of perihelion", "units": "deg", "sigma": "1.7316E-5", "name": "w", "label": "peri"}, {"units": "deg", "title": "mean anomaly", "value": "13.86470381641969", "sigma": "3.2682E-6", "name": "ma", "label": "M"}, {"label": "tp", "sigma": "7.7371E-6", "name": "tp", "title": "time of perihelion passage", "value": "2461167.773734439924", "units": "TDB"}, {"sigma": "3.3112E-6", "name": "per", "value": "849.7444848172489", "title": "sidereal orbital period", "units": "d", "label": "period"}, {"sigma": "1.6508E-9", "name": "n", "units": "deg/d", "value": ".4236567655716221", "title": "mean motion", "label": "n"}, {"units": "au", "value": "3.051299099210618", "title": "aphelion distance", "name": "ad", "sigma": "7.9266E-9", "label": "Q"}], "epoch": "2461200.5"}